ONEWEB-0275             
1 48993U 21060AC  26160.24975249  .00000104  00000+0  23911-3 0  9992
2 48993  87.9102 230.3515 0001976  96.7030 263.4326 13.16593722238513
ONEWEB-0276             
1 48994U 21060AD  26160.20699810 -.00000038  00000+0 -13421-3 0  9999
2 48994  87.9101 230.3592 0002017  93.8201 266.3161 13.16594280238523
ONEWEB-0277             
1 48995U 21060AE  26160.21966975 -.00000040  00000+0 -13705-3 0  9998
2 48995  87.9094 230.3665 0001895 100.4132 259.7213 13.16593467238516
ONEWEB-0278             
1 48996U 21060AF  26160.21015101 -.00000064  00000+0 -20009-3 0  9996
2 48996  87.9104 230.3577 0002265 102.0572 258.0813 13.16596960238642
ONEWEB-0279             
1 48997U 21060AG  26160.21808475 -.00000013  00000+0 -67746-4 0  9995
2 48997  87.9101 230.3545 0001834  95.8910 264.2430 13.16594166238573
ONEWEB-0280             
1 48998U 21060AH  26160.23311408  .00000088  00000+0  19597-3 0  9993
2 48998  87.9098 230.3559 0002432 112.8611 247.2777 13.16592035238519
ONEWEB-0281             
1 48999U 21060AJ  26160.23866891  .00000049  00000+0  93506-4 0  9995
2 48999  87.9099 230.3499 0002107  99.8782 260.2587 13.16594610238588
ONEWEB-0282             
1 49000U 21060AK  26160.19273372  .00000048  00000+0  91863-4 0  9993
2 49000  87.9100 230.3674 0001897 101.7786 258.3558 13.16597191238552
ONEWEB-0283             
1 49001U 21060AL  26160.18166409  .00000181  00000+0  44060-3 0  9999
2 49001  87.9099 230.3691 0001886  97.3485 262.7861 13.16594188238563
ONEWEB-0284             
1 49002U 21060AM  26160.09934110  .00000052  00000+0  10231-3 0  9992
2 49002  87.9099 230.3787 0002145 108.2714 251.8651 13.16593649238530
ONEWEB-0285             
1 49075U 21075A   26160.28408074  .00000412  00000+0  11090-2 0  9997
2 49075  87.8949 352.2340 0001745  90.4289 269.7039 13.12443764234178
ONEWEB-0286             
1 49076U 21075B   26160.03743568 -.00000126  00000+0 -38553-3 0  9999
2 49076  87.8937 352.3007 0002021  87.1622 272.9738 13.12443493233494
ONEWEB-0287             
1 49077U 21075C   26160.11741731 -.00000001  00000+0 -35979-4 0  9991
2 49077  87.9139   7.4714 0002267  87.9194 272.2197 13.17648955232561
ONEWEB-0288             
1 49078U 21075D   26160.24256540 -.00000217  00000+0 -63752-3 0  9993
2 49078  87.8948 352.2355 0001980  92.6122 267.5233 13.12442190234148
ONEWEB-0289             
1 49079U 21075E   26160.08015758  .00000031  00000+0  46418-4 0  9993
2 49079  87.9142   7.4955 0001701  99.1459 260.9865 13.17648643233139
ONEWEB-0290             
1 49080U 21075F   26160.05329715 -.00000004  00000+0 -43849-4 0  9990
2 49080  87.9150   7.4720 0001593 101.5320 258.5991 13.17648414232547
ONEWEB-0291             
1 49081U 21075G   26160.26591799  .00000017  00000+0  11062-4 0  9991
2 49081  87.9142   7.4380 0002100  94.9751 265.1620 13.17648501232561
ONEWEB-0293             
1 49082U 21075H   26160.29121951  .00000016  00000+0  76006-5 0  9993
2 49082  87.9137   7.4365 0001831  91.4795 268.6547 13.17647801232590
ONEWEB-0294             
1 49083U 21075J   26160.24934341 -.00000403  00000+0 -11554-2 0  9990
2 49083  87.8948 352.2377 0001684  99.3294 260.8025 13.12443420233537
ONEWEB-0295             
1 49084U 21075K   26160.29037986  .00000024  00000+0  29642-4 0  9991
2 49084  87.9136   7.4409 0002141  91.1937 268.9440 13.17647524232553
ONEWEB-0296             
1 49085U 21075L   26160.22901591  .00000177  00000+0  45637-3 0  9997
2 49085  87.8952 352.2489 0002080  95.4823 264.6543 13.12442293233538
ONEWEB-0297             
1 49086U 21075M   26160.25950590 -.00000316  00000+0 -91372-3 0  9998
2 49086  87.8937 352.2551 0001922  89.8164 270.3184 13.12443908234148
ONEWEB-0298             
1 49087U 21075N   26160.29473914 -.00001201  00000+0 -31254-2 0  9999
2 49087  87.9136   7.4380 0002039  84.3020 275.8345 13.17655070232586
ONEWEB-0299             
1 49088U 21075P   26160.06848733  .00000010  00000+0 -70744-5 0  9996
2 49088  87.9148   7.4624 0002033  86.8302 273.3062 13.17648959232537
ONEWEB-0300             
1 49089U 21075Q   26160.25187958 -.00000357  00000+0 -10271-2 0  9994
2 49089  87.8952 352.2354 0001956  78.2632 281.8716 13.12443736234167
ONEWEB-0301             
1 49090U 21075R   26160.23578890 -.00000037  00000+0 -13792-3 0  9990
2 49090  87.8947 352.2362 0001795  77.6158 282.5172 13.12443449233523
ONEWEB-0302             
1 49091U 21075S   26160.22224467  .00000371  00000+0  99612-3 0  9992
2 49091  87.8951 352.2507 0001813  99.2642 260.8691 13.12442398233504
ONEWEB-0304             
1 49092U 21075T   26160.11910505  .00000030  00000+0  44341-4 0  9998
2 49092  87.9140   7.4753 0001998  88.2595 271.8766 13.17648960232510
ONEWEB-0305             
1 49093U 21075U   26160.11235704  .00000015  00000+0  44077-5 0  9990
2 49093  87.9147   7.4604 0002239  89.1790 270.9598 13.17648629232547
ONEWEB-0308             
1 49094U 21075V   26160.29170473  .00000466  00000+0  12594-2 0  9997
2 49094  87.8950 352.2292 0001792  88.7360 271.3974 13.12442817233522
