OBJECT_NAME,OBJECT_ID,EPOCH,MEAN_MOTION,ECCENTRICITY,INCLINATION,RA_OF_ASC_NODE,ARG_OF_PERICENTER,MEAN_ANOMALY,EPHEMERIS_TYPE,CLASSIFICATION_TYPE,NORAD_CAT_ID,ELEMENT_SET_NO,REV_AT_EPOCH,BSTAR,MEAN_MOTION_DOT,MEAN_MOTION_DDOT
ONEWEB-0275,2021-060AC,2026-06-09T05:59:38.615136,13.16593722,.00019762,87.9102,230.3515,96.7030,263.4326,0,U,48993,999,23851,.23911494E-3,.104E-5,0
ONEWEB-0276,2021-060AD,2026-06-09T04:58:04.635840,13.16594280,.00020178,87.9101,230.3592,93.8201,266.3161,0,U,48994,999,23852,-.1342079E-3,-.38E-6,0
ONEWEB-0277,2021-060AE,2026-06-09T05:16:19.466400,13.16593467,.00018955,87.9094,230.3665,100.4132,259.7213,0,U,48995,999,23851,-.13705178E-3,-.4E-6,0
ONEWEB-0278,2021-060AF,2026-06-09T05:02:37.047264,13.16596960,.00022653,87.9104,230.3577,102.0572,258.0813,0,U,48996,999,23864,-.20008945E-3,-.64E-6,0
ONEWEB-0279,2021-060AG,2026-06-09T05:14:02.522400,13.16594166,.00018345,87.9101,230.3545,95.8910,264.2430,0,U,48997,999,23857,-.67746477E-4,-.13E-6,0
ONEWEB-0280,2021-060AH,2026-06-09T05:35:41.056512,13.16592035,.00024326,87.9098,230.3559,112.8611,247.2777,0,U,48998,999,23851,.19596791E-3,.88E-6,0
ONEWEB-0281,2021-060AJ,2026-06-09T05:43:40.993824,13.16594610,.00021073,87.9099,230.3499,99.8782,260.2587,0,U,48999,999,23858,.93505551E-4,.49E-6,0
ONEWEB-0282,2021-060AK,2026-06-09T04:37:32.193408,13.16597191,.00018971,87.9100,230.3674,101.7786,258.3558,0,U,49000,999,23855,.91863296E-4,.48E-6,0
ONEWEB-0283,2021-060AL,2026-06-09T04:21:35.777376,13.16594188,.0001886,87.9099,230.3691,97.3485,262.7861,0,U,49001,999,23856,.44059806E-3,.181E-5,0
ONEWEB-0284,2021-060AM,2026-06-09T02:23:03.071040,13.16593649,.00021453,87.9099,230.3787,108.2714,251.8651,0,U,49002,999,23853,.10231481E-3,.52E-6,0
ONEWEB-0285,2021-075A,2026-06-09T06:49:04.575936,13.12443764,.00017458,87.8949,352.2340,90.4289,269.7039,0,U,49075,999,23417,.11089582E-2,.412E-5,0
ONEWEB-0286,2021-075B,2026-06-09T00:53:54.442752,13.12443493,.00020215,87.8937,352.3007,87.1622,272.9738,0,U,49076,999,23349,-.38553028E-3,-.126E-5,0
ONEWEB-0287,2021-075C,2026-06-09T02:49:04.855584,13.17648955,.00022677,87.9139,7.4714,87.9194,272.2197,0,U,49077,999,23256,-.35978821E-4,-.1E-7,0
ONEWEB-0288,2021-075D,2026-06-09T05:49:17.650560,13.12442190,.00019809,87.8948,352.2355,92.6122,267.5233,0,U,49078,999,23414,-.63751887E-3,-.217E-5,0
ONEWEB-0289,2021-075E,2026-06-09T01:55:25.614912,13.17648643,.00017013,87.9142,7.4955,99.1459,260.9865,0,U,49079,999,23313,.46417808E-4,.31E-6,0
ONEWEB-0290,2021-075F,2026-06-09T01:16:44.873760,13.17648414,.00015938,87.9150,7.4720,101.5320,258.5991,0,U,49080,999,23254,-.43848839E-4,-.4E-7,0
ONEWEB-0291,2021-075G,2026-06-09T06:22:55.314336,13.17648501,.00021003,87.9142,7.4380,94.9751,265.1620,0,U,49081,999,23256,.11061677E-4,.17E-6,0
ONEWEB-0293,2021-075H,2026-06-09T06:59:21.365664,13.17647801,.00018318,87.9137,7.4365,91.4795,268.6547,0,U,49082,999,23259,.7600578E-5,.16E-6,0
ONEWEB-0294,2021-075J,2026-06-09T05:59:03.270624,13.12443420,.00016848,87.8948,352.2377,99.3294,260.8025,0,U,49083,999,23353,-.1155431E-2,-.403E-5,0
ONEWEB-0295,2021-075K,2026-06-09T06:58:08.819904,13.17647524,.00021419,87.9136,7.4409,91.1937,268.9440,0,U,49084,999,23255,.29641538E-4,.24E-6,0
ONEWEB-0296,2021-075L,2026-06-09T05:29:46.974624,13.12442293,.00020805,87.8952,352.2489,95.4823,264.6543,0,U,49085,999,23353,.45637387E-3,.177E-5,0
ONEWEB-0297,2021-075M,2026-06-09T06:13:41.309760,13.12443908,.00019228,87.8937,352.2551,89.8164,270.3184,0,U,49086,999,23414,-.91371946E-3,-.316E-5,0
ONEWEB-0298,2021-075N,2026-06-09T07:04:25.461696,13.17655070,.00020398,87.9136,7.4380,84.3020,275.8345,0,U,49087,999,23258,-.31254241E-2,-.1201E-4,0
ONEWEB-0299,2021-075P,2026-06-09T01:38:37.305312,13.17648959,.00020339,87.9148,7.4624,86.8302,273.3062,0,U,49088,999,23253,-.7074387E-5,.1E-6,0
ONEWEB-0300,2021-075Q,2026-06-09T06:02:42.395712,13.12443736,.00019562,87.8952,352.2354,78.2632,281.8716,0,U,49089,999,23416,-.10270583E-2,-.357E-5,0
ONEWEB-0301,2021-075R,2026-06-09T05:39:32.160960,13.12443449,.00017954,87.8947,352.2362,77.6158,282.5172,0,U,49090,999,23352,-.13792393E-3,-.37E-6,0
ONEWEB-0302,2021-075S,2026-06-09T05:20:01.939488,13.12442398,.00018136,87.8951,352.2507,99.2642,260.8691,0,U,49091,999,23350,.99612373E-3,.371E-5,0
ONEWEB-0304,2021-075T,2026-06-09T02:51:30.676320,13.17648960,.00019989,87.9140,7.4753,88.2595,271.8766,0,U,49092,999,23251,.4434117E-4,.3E-6,0
ONEWEB-0305,2021-075U,2026-06-09T02:41:47.648256,13.17648629,.00022395,87.9147,7.4604,89.1790,270.9598,0,U,49093,999,23254,.4407701E-5,.15E-6,0
ONEWEB-0308,2021-075V,2026-06-09T07:00:03.288672,13.12442817,.00017927,87.8950,352.2292,88.7360,271.3974,0,U,49094,999,23352,.12594444E-2,.466E-5,0
